STARLINK-35989          
1 66819U 25278AE  25354.16667823 -.01960009  00000+0 -22997-1 0  9998
2 66819  42.9996 206.8491 0001340 272.3201 250.3202 15.63894035  4154
KOMPSAT-7               
1 66820U 25279A   25349.01202829  .00003163  00000+0  25789-3 0  9990
2 66820  97.6410 294.8339 0009394 252.0315 107.9885 15.00155940  1999
STARLINK-35966          
1 66821U 25280A   25354.16667823 -.00005924  00000+0 -93659-4 0  9995
2 66821  69.9989 178.0759 0003390 273.7202 191.0627 15.52512338  4094
STARLINK-35958          
1 66822U 25280B   25354.16667823 -.00003568  00000+0 -55323-4 0  9994
2 66822  69.9988 178.0732 0003181 267.7716 198.9291 15.52511380  4095
STARLINK-35957          
1 66823U 25280C   25354.16667823 -.00006459  00000+0 -10236-3 0  9990
2 66823  69.9990 178.0714 0003125 268.8112 199.7982 15.52516033  4095
STARLINK-35896          
1 66824U 25280D   25354.16667823  .00000676  00000+0  13701-4 0  9995
2 66824  69.9990 178.0679 0002968 268.2974 202.2133 15.52520586  4096
STARLINK-35476          
1 66825U 25280E   25354.16667823 -.00003776  00000+0 -58692-4 0  9990
2 66825  69.9990 178.0666 0003042 268.3361 204.1032 15.52515953  3942
STARLINK-35898          
1 66826U 25280F   25354.16667823 -.00005653  00000+0 -89248-4 0  9998
2 66826  69.9991 178.0632 0003061 268.9601 205.4028 15.52513863  4095
STARLINK-35959          
1 66827U 25280G   25354.16667823 -.00006860  00000+0 -10891-3 0  9997
2 66827  69.9992 178.0620 0003048 268.5063 207.7747 15.52513343  4093
STARLINK-35982          
1 66828U 25280H   25354.16667823  .00002134  00000+0  37413-4 0  9996
2 66828  69.9992 178.0557 0003096 267.2773 212.8294 15.52514354  4097
STARLINK-36084          
1 66829U 25280J   25354.16667823  .00000992  00000+0  18877-4 0  9990
2 66829  69.9993 178.0579 0002993 271.3446 206.8162 15.52479351  3937
STARLINK-35881          
1 66830U 25280K   25354.16667823  .00001681  00000+0  30049-4 0  9993
2 66830  69.9992 178.0527 0003034 267.4999 214.5269 15.52512809  4095
