CCSDS_OMM_VERS = 2.0
CREATION_DATE  = 
ORIGINATOR     = 

OBJECT_NAME    = STARLINK-35989
OBJECT_ID      = 2025-278AE
CENTER_NAME    = EARTH
REF_FRAME      = TEME
TIME_SYSTEM    = UTC
MEAN_ELEMENT_THEORY = SGP/SGP4

EPOCH          = 2025-12-20T04:00:00.999072
MEAN_MOTION    = 15.63894035
ECCENTRICITY   = .000134
INCLINATION    = 42.9996
RA_OF_ASC_NODE = 206.8491
ARG_OF_PERICENTER = 272.3201
MEAN_ANOMALY   = 250.3202

EPHEMERIS_TYPE = 0
CLASSIFICATION_TYPE = U
NORAD_CAT_ID   = 66819
ELEMENT_SET_NO = 999
REV_AT_EPOCH   = 415
BSTAR          = -.22997E-1
MEAN_MOTION_DOT = -.1960009E-1
MEAN_MOTION_DDOT = 0

CCSDS_OMM_VERS = 2.0
CREATION_DATE  = 
ORIGINATOR     = 

OBJECT_NAME    = KOMPSAT-7
OBJECT_ID      = 2025-279A
CENTER_NAME    = EARTH
REF_FRAME      = TEME
TIME_SYSTEM    = UTC
MEAN_ELEMENT_THEORY = SGP/SGP4

EPOCH          = 2025-12-15T00:17:19.244256
MEAN_MOTION    = 15.00155940
ECCENTRICITY   = .00093948
INCLINATION    = 97.6410
RA_OF_ASC_NODE = 294.8339
ARG_OF_PERICENTER = 252.0315
MEAN_ANOMALY   = 107.9885

EPHEMERIS_TYPE = 0
CLASSIFICATION_TYPE = U
NORAD_CAT_ID   = 66820
ELEMENT_SET_NO = 999
REV_AT_EPOCH   = 199
BSTAR          = .25788518E-3
MEAN_MOTION_DOT = .3163E-4
MEAN_MOTION_DDOT = 0

CCSDS_OMM_VERS = 2.0
CREATION_DATE  = 
ORIGINATOR     = 

OBJECT_NAME    = STARLINK-35966
OBJECT_ID      = 2025-280A
CENTER_NAME    = EARTH
REF_FRAME      = TEME
TIME_SYSTEM    = UTC
MEAN_ELEMENT_THEORY = SGP/SGP4

EPOCH          = 2025-12-20T04:00:00.999072
MEAN_MOTION    = 15.52512338
ECCENTRICITY   = .000339
INCLINATION    = 69.9989
RA_OF_ASC_NODE = 178.0759
ARG_OF_PERICENTER = 273.7202
MEAN_ANOMALY   = 191.0627

EPHEMERIS_TYPE = 0
CLASSIFICATION_TYPE = U
NORAD_CAT_ID   = 66821
ELEMENT_SET_NO = 999
REV_AT_EPOCH   = 409
BSTAR          = -.93659E-4
MEAN_MOTION_DOT = -.5924E-4
MEAN_MOTION_DDOT = 0

CCSDS_OMM_VERS = 2.0
CREATION_DATE  = 
ORIGINATOR     = 

OBJECT_NAME    = STARLINK-35958
OBJECT_ID      = 2025-280B
CENTER_NAME    = EARTH
REF_FRAME      = TEME
TIME_SYSTEM    = UTC
MEAN_ELEMENT_THEORY = SGP/SGP4

EPOCH          = 2025-12-20T04:00:00.999072
MEAN_MOTION    = 15.52511380
ECCENTRICITY   = .0003181
INCLINATION    = 69.9988
RA_OF_ASC_NODE = 178.0732
ARG_OF_PERICENTER = 267.7716
MEAN_ANOMALY   = 198.9291

EPHEMERIS_TYPE = 0
CLASSIFICATION_TYPE = U
NORAD_CAT_ID   = 66822
ELEMENT_SET_NO = 999
REV_AT_EPOCH   = 409
BSTAR          = -.55323E-4
MEAN_MOTION_DOT = -.3568E-4
MEAN_MOTION_DDOT = 0

CCSDS_OMM_VERS = 2.0
CREATION_DATE  = 
ORIGINATOR     = 

OBJECT_NAME    = STARLINK-35957
OBJECT_ID      = 2025-280C
CENTER_NAME    = EARTH
REF_FRAME      = TEME
TIME_SYSTEM    = UTC
MEAN_ELEMENT_THEORY = SGP/SGP4

EPOCH          = 2025-12-20T04:00:00.999072
MEAN_MOTION    = 15.52516033
ECCENTRICITY   = .0003125
INCLINATION    = 69.9990
RA_OF_ASC_NODE = 178.0714
ARG_OF_PERICENTER = 268.8112
MEAN_ANOMALY   = 199.7982

EPHEMERIS_TYPE = 0
CLASSIFICATION_TYPE = U
NORAD_CAT_ID   = 66823
ELEMENT_SET_NO = 999
REV_AT_EPOCH   = 409
BSTAR          = -.10236E-3
MEAN_MOTION_DOT = -.6459E-4
MEAN_MOTION_DDOT = 0

CCSDS_OMM_VERS = 2.0
CREATION_DATE  = 
ORIGINATOR     = 

OBJECT_NAME    = STARLINK-35896
OBJECT_ID      = 2025-280D
CENTER_NAME    = EARTH
REF_FRAME      = TEME
TIME_SYSTEM    = UTC
MEAN_ELEMENT_THEORY = SGP/SGP4

EPOCH          = 2025-12-20T04:00:00.999072
MEAN_MOTION    = 15.52520586
ECCENTRICITY   = .0002968
INCLINATION    = 69.9990
RA_OF_ASC_NODE = 178.0679
ARG_OF_PERICENTER = 268.2974
MEAN_ANOMALY   = 202.2133

EPHEMERIS_TYPE = 0
CLASSIFICATION_TYPE = U
NORAD_CAT_ID   = 66824
ELEMENT_SET_NO = 999
REV_AT_EPOCH   = 409
BSTAR          = .13701E-4
MEAN_MOTION_DOT = .676E-5
MEAN_MOTION_DDOT = 0

CCSDS_OMM_VERS = 2.0
CREATION_DATE  = 
ORIGINATOR     = 

OBJECT_NAME    = STARLINK-35476
OBJECT_ID      = 2025-280E
CENTER_NAME    = EARTH
REF_FRAME      = TEME
TIME_SYSTEM    = UTC
MEAN_ELEMENT_THEORY = SGP/SGP4

EPOCH          = 2025-12-20T04:00:00.999072
MEAN_MOTION    = 15.52515953
ECCENTRICITY   = .0003042
INCLINATION    = 69.9990
RA_OF_ASC_NODE = 178.0666
ARG_OF_PERICENTER = 268.3361
MEAN_ANOMALY   = 204.1032

EPHEMERIS_TYPE = 0
CLASSIFICATION_TYPE = U
NORAD_CAT_ID   = 66825
ELEMENT_SET_NO = 999
REV_AT_EPOCH   = 394
BSTAR          = -.58692E-4
MEAN_MOTION_DOT = -.3776E-4
MEAN_MOTION_DDOT = 0

CCSDS_OMM_VERS = 2.0
CREATION_DATE  = 
ORIGINATOR     = 

OBJECT_NAME    = STARLINK-35898
OBJECT_ID      = 2025-280F
CENTER_NAME    = EARTH
REF_FRAME      = TEME
TIME_SYSTEM    = UTC
MEAN_ELEMENT_THEORY = SGP/SGP4

EPOCH          = 2025-12-20T04:00:00.999072
MEAN_MOTION    = 15.52513863
ECCENTRICITY   = .0003061
INCLINATION    = 69.9991
RA_OF_ASC_NODE = 178.0632
ARG_OF_PERICENTER = 268.9601
MEAN_ANOMALY   = 205.4028

EPHEMERIS_TYPE = 0
CLASSIFICATION_TYPE = U
NORAD_CAT_ID   = 66826
ELEMENT_SET_NO = 999
REV_AT_EPOCH   = 409
BSTAR          = -.89248E-4
MEAN_MOTION_DOT = -.5653E-4
MEAN_MOTION_DDOT = 0

CCSDS_OMM_VERS = 2.0
CREATION_DATE  = 
ORIGINATOR     = 

OBJECT_NAME    = STARLINK-35959
OBJECT_ID      = 2025-280G
CENTER_NAME    = EARTH
REF_FRAME      = TEME
TIME_SYSTEM    = UTC
MEAN_ELEMENT_THEORY = SGP/SGP4

EPOCH          = 2025-12-20T04:00:00.999072
MEAN_MOTION    = 15.52513343
ECCENTRICITY   = .0003048
INCLINATION    = 69.9992
RA_OF_ASC_NODE = 178.0620
ARG_OF_PERICENTER = 268.5063
MEAN_ANOMALY   = 207.7747

EPHEMERIS_TYPE = 0
CLASSIFICATION_TYPE = U
NORAD_CAT_ID   = 66827
ELEMENT_SET_NO = 999
REV_AT_EPOCH   = 409
BSTAR          = -.10891E-3
MEAN_MOTION_DOT = -.686E-4
MEAN_MOTION_DDOT = 0

CCSDS_OMM_VERS = 2.0
CREATION_DATE  = 
ORIGINATOR     = 

OBJECT_NAME    = STARLINK-35982
OBJECT_ID      = 2025-280H
CENTER_NAME    = EARTH
REF_FRAME      = TEME
TIME_SYSTEM    = UTC
MEAN_ELEMENT_THEORY = SGP/SGP4

EPOCH          = 2025-12-20T04:00:00.999072
MEAN_MOTION    = 15.52514354
ECCENTRICITY   = .0003096
INCLINATION    = 69.9992
RA_OF_ASC_NODE = 178.0557
ARG_OF_PERICENTER = 267.2773
MEAN_ANOMALY   = 212.8294

EPHEMERIS_TYPE = 0
CLASSIFICATION_TYPE = U
NORAD_CAT_ID   = 66828
ELEMENT_SET_NO = 999
REV_AT_EPOCH   = 409
BSTAR          = .37413E-4
MEAN_MOTION_DOT = .2134E-4
MEAN_MOTION_DDOT = 0

CCSDS_OMM_VERS = 2.0
CREATION_DATE  = 
ORIGINATOR     = 

OBJECT_NAME    = STARLINK-36084
OBJECT_ID      = 2025-280J
CENTER_NAME    = EARTH
REF_FRAME      = TEME
TIME_SYSTEM    = UTC
MEAN_ELEMENT_THEORY = SGP/SGP4

EPOCH          = 2025-12-20T04:00:00.999072
MEAN_MOTION    = 15.52479351
ECCENTRICITY   = .0002993
INCLINATION    = 69.9993
RA_OF_ASC_NODE = 178.0579
ARG_OF_PERICENTER = 271.3446
MEAN_ANOMALY   = 206.8162

EPHEMERIS_TYPE = 0
CLASSIFICATION_TYPE = U
NORAD_CAT_ID   = 66829
ELEMENT_SET_NO = 999
REV_AT_EPOCH   = 393
BSTAR          = .18877E-4
MEAN_MOTION_DOT = .992E-5
MEAN_MOTION_DDOT = 0

CCSDS_OMM_VERS = 2.0
CREATION_DATE  = 
ORIGINATOR     = 

OBJECT_NAME    = STARLINK-35881
OBJECT_ID      = 2025-280K
CENTER_NAME    = EARTH
REF_FRAME      = TEME
TIME_SYSTEM    = UTC
MEAN_ELEMENT_THEORY = SGP/SGP4

EPOCH          = 2025-12-20T04:00:00.999072
MEAN_MOTION    = 15.52512809
ECCENTRICITY   = .0003034
INCLINATION    = 69.9992
RA_OF_ASC_NODE = 178.0527
ARG_OF_PERICENTER = 267.4999
MEAN_ANOMALY   = 214.5269

EPHEMERIS_TYPE = 0
CLASSIFICATION_TYPE = U
NORAD_CAT_ID   = 66830
ELEMENT_SET_NO = 999
REV_AT_EPOCH   = 409
BSTAR          = .30049E-4
MEAN_MOTION_DOT = .1681E-4
MEAN_MOTION_DDOT = 0

